{"fetched_at":"2026-03-29T16:36:15Z","count":15609,"tles":[{"name":"STARLINK-31755","line1":"1 59607U 24080G   26087.88830397  .00000670  00000+0  33872-4 0  9999","line2":"2 59607  43.0042 293.3922 0001353 275.6881  84.3817 15.27577314107428","category":"Starlink"}]}