{
  "norad_id": 59607,
  "name": "STARLINK-31755",
  "history": [
    {
      "epoch": "2026-03-28T21:19:09.463008",
      "apogee_km": 483.98545846871366,
      "perigee_km": 482.12881933472727,
      "latitude_deg": 40.01603897431636,
      "longitude_deg": -134.02281888015568,
      "semi_major_axis_km": 6861.19413890172,
      "eccentricity": 0.0001353,
      "inclination_deg": 43.0042,
      "raan_deg": 293.3922,
      "arg_perigee_deg": 275.6881,
      "mean_anomaly_deg": 84.3817,
      "mean_motion_rev_day": 15.27577314
    }
  ]
}